{"type": "FeatureCollection", "features": [ {"type": "Feature", "properties": {"norad_id": 66603, "name": "STARLINK-36048", "group": "last-30-days", "lat": -24.0446590512707, "lon": -140.6670386433695, "alt_km": 341.10869880632254, "timestamp": "2025-12-03T10:52:56.223279+00:00", "meta": {"OBJECT_NAME": "STARLINK-36048", "OBJECT_ID": "2025-270R", "EPOCH": "2025-12-03T04:00:01.998720", "MEAN_MOTION": 15.77884414, "ECCENTRICITY": 0.0001388, "INCLINATION": 42.9989, "RA_OF_ASC_NODE": 249.6873, "ARG_OF_PERICENTER": 272.96, "MEAN_ANOMALY": 220.1713, "EPHEMERIS_TYPE": 0, "CLASSIFICATION_TYPE": "U", "NORAD_CAT_ID": 66603, "ELEMENT_SET_NO": 999, "REV_AT_EPOCH": 276, "BSTAR": -0.011094, "MEAN_MOTION_DOT": -0.01709344, "MEAN_MOTION_DDOT": 0}, "tle": {"line1": "1 66603U 25270R   25337.16668980 -.01709344  00000+0 -11094-1 0  9996", "line2": "2 66603  42.9989 249.6873 0001388 272.9600 220.1713 15.77884414  2769"}}, "geometry": {"type": "Point", "coordinates": [-140.6670386433695, -24.0446590512707]}}, {"type": "Feature", "properties": {"norad_id": 66604, "name": "STARLINK-35977", "group": "last-30-days", "lat": -22.89429868757262, "lon": -139.01299193425828, "alt_km": 340.98228914023184, "timestamp": "2025-12-03T10:52:56.223289+00:00", "meta": {"OBJECT_NAME": "STARLINK-35977", "OBJECT_ID": "2025-270S", "EPOCH": "2025-12-03T04:00:01.998720", "MEAN_MOTION": 15.77897678, "ECCENTRICITY": 0.0001515, "INCLINATION": 42.9991, "RA_OF_ASC_NODE": 249.6826, "ARG_OF_PERICENTER": 271.895, "MEAN_ANOMALY": 223.1323, "EPHEMERIS_TYPE": 0, "CLASSIFICATION_TYPE": "U", "NORAD_CAT_ID": 66604, "ELEMENT_SET_NO": 999, "REV_AT_EPOCH": 286, "BSTAR": -0.011136, "MEAN_MOTION_DOT": -0.01715978, "MEAN_MOTION_DDOT": 0}, "tle": {"line1": "1 66604U 25270S   25337.16668980 -.01715978  00000+0 -11136-1 0  9994", "line2": "2 66604  42.9991 249.6826 0001515 271.8950 223.1323 15.77897678  2866"}}, "geometry": {"type": "Point", "coordinates": [-139.01299193425828, -22.89429868757262]}}, {"type": "Feature", "properties": {"norad_id": 66605, "name": "STARLINK-36052", "group": "last-30-days", "lat": -21.722319287358538, "lon": -137.38056735739826, "alt_km": 340.71940765746604, "timestamp": "2025-12-03T10:52:56.223299+00:00", "meta": {"OBJECT_NAME": "STARLINK-36052", "OBJECT_ID": "2025-270T", "EPOCH": "2025-12-03T04:00:01.998720", "MEAN_MOTION": 15.77901873, "ECCENTRICITY": 0.0001559, "INCLINATION": 42.9991, "RA_OF_ASC_NODE": 249.6781, "ARG_OF_PERICENTER": 282.0015, "MEAN_ANOMALY": 214.9416, "EPHEMERIS_TYPE": 0, "CLASSIFICATION_TYPE": "U", "NORAD_CAT_ID": 66605, "ELEMENT_SET_NO": 999, "REV_AT_EPOCH": 286, "BSTAR": -0.011172, "MEAN_MOTION_DOT": -0.01721264, "MEAN_MOTION_DDOT": 0}, "tle": {"line1": "1 66605U 25270T   25337.16668980 -.01721264  00000+0 -11172-1 0  9990", "line2": "2 66605  42.9991 249.6781 0001559 282.0015 214.9416 15.77901873  2865"}}, "geometry": {"type": "Point", "coordinates": [-137.38056735739826, -21.722319287358538]}}, {"type": "Feature", "properties": {"norad_id": 66606, "name": "STARLINK-36063", "group": "last-30-days", "lat": -19.24970138370409, "lon": -134.08829499133574, "alt_km": 341.01449232075447, "timestamp": "2025-12-03T10:52:56.223311+00:00", "meta": {"OBJECT_NAME": "STARLINK-36063", "OBJECT_ID": "2025-270U", "EPOCH": "2025-12-03T04:00:01.998720", "MEAN_MOTION": 15.77849926, "ECCENTRICITY": 0.0001525, "INCLINATION": 42.999, "RA_OF_ASC_NODE": 249.6676, "ARG_OF_PERICENTER": 268.8188, "MEAN_ANOMALY": 232.1441, "EPHEMERIS_TYPE": 0, "CLASSIFICATION_TYPE": "U", "NORAD_CAT_ID": 66606, "ELEMENT_SET_NO": 999, "REV_AT_EPOCH": 286, "BSTAR": -0.011333, "MEAN_MOTION_DOT": -0.01739507, "MEAN_MOTION_DDOT": 0}, "tle": {"line1": "1 66606U 25270U   25337.16668980 -.01739507  00000+0 -11333-1 0  9999", "line2": "2 66606  42.9990 249.6676 0001525 268.8188 232.1441 15.77849926  2864"}}, "geometry": {"type": "Point", "coordinates": [-134.08829499133574, -19.24970138370409]}}, {"type": "Feature", "properties": {"norad_id": 66607, "name": "STARLINK-35993", "group": "last-30-days", "lat": -20.461810169837662, "lon": -135.67862437367455, "alt_km": 340.96940971225376, "timestamp": "2025-12-03T10:52:56.223324+00:00", "meta": {"OBJECT_NAME": "STARLINK-35993", "OBJECT_ID": "2025-270V", "EPOCH": "2025-12-03T04:00:01.998720", "MEAN_MOTION": 15.77851449, "ECCENTRICITY": 0.0001471, "INCLINATION": 42.999, "RA_OF_ASC_NODE": 249.6726, "ARG_OF_PERICENTER": 275.7505, "MEAN_ANOMALY": 223.2822, "EPHEMERIS_TYPE": 0, "CLASSIFICATION_TYPE": "U", "NORAD_CAT_ID": 66607, "ELEMENT_SET_NO": 999, "REV_AT_EPOCH": 276, "BSTAR": -0.011318, "MEAN_MOTION_DOT": -0.01737483, "MEAN_MOTION_DDOT": 0}, "tle": {"line1": "1 66607U 25270V   25337.16668980 -.01737483  00000+0 -11318-1 0  9994", "line2": "2 66607  42.9990 249.6726 0001471 275.7505 223.2822 15.77851449  2767"}}, "geometry": {"type": "Point", "coordinates": [-135.67862437367455, -20.461810169837662]}}, {"type": "Feature", "properties": {"norad_id": 66608, "name": "STARLINK-36036", "group": "last-30-days", "lat": -18.024190723142524, "lon": -132.52110048519563, "alt_km": 340.94291994153264, "timestamp": "2025-12-03T10:52:56.223334+00:00", "meta": {"OBJECT_NAME": "STARLINK-36036", "OBJECT_ID": "2025-270W", "EPOCH": "2025-12-03T04:00:01.998720", "MEAN_MOTION": 15.77854445, "ECCENTRICITY": 0.0001337, "INCLINATION": 42.9991, "RA_OF_ASC_NODE": 249.6632, "ARG_OF_PERICENTER": 272.987, "MEAN_ANOMALY": 229.9082, "EPHEMERIS_TYPE": 0, "CLASSIFICATION_TYPE": "U", "NORAD_CAT_ID": 66608, "ELEMENT_SET_NO": 999, "REV_AT_EPOCH": 270, "BSTAR": -0.011429, "MEAN_MOTION_DOT": -0.01752533, "MEAN_MOTION_DDOT": 0}, "tle": {"line1": "1 66608U 25270W   25337.16668980 -.01752533  00000+0 -11429-1 0  9991", "line2": "2 66608  42.9991 249.6632 0001337 272.9870 229.9082 15.77854445  2704"}}, "geometry": {"type": "Point", "coordinates": [-132.52110048519563, -18.024190723142524]}}, {"type": "Feature", "properties": {"norad_id": 66609, "name": "STARLINK-36034", "group": "last-30-days", "lat": -16.790316752155142, "lon": -130.98144714664699, "alt_km": 340.816493351349, "timestamp": "2025-12-03T10:52:56.223344+00:00", "meta": {"OBJECT_NAME": "STARLINK-36034", "OBJECT_ID": "2025-270X", "EPOCH": "2025-12-03T04:00:01.998720", "MEAN_MOTION": 15.77853673, "ECCENTRICITY": 0.0001374, "INCLINATION": 42.9991, "RA_OF_ASC_NODE": 249.6583, "ARG_OF_PERICENTER": 274.9778, "MEAN_ANOMALY": 229.8421, "EPHEMERIS_TYPE": 0, "CLASSIFICATION_TYPE": "U", "NORAD_CAT_ID": 66609, "ELEMENT_SET_NO": 999, "REV_AT_EPOCH": 270, "BSTAR": -0.011449, "MEAN_MOTION_DOT": -0.01755238, "MEAN_MOTION_DDOT": 0}, "tle": {"line1": "1 66609U 25270X   25337.16668980 -.01755238  00000+0 -11449-1 0  9999", "line2": "2 66609  42.9991 249.6583 0001374 274.9778 229.8421 15.77853673  2708"}}, "geometry": {"type": "Point", "coordinates": [-130.98144714664699, -16.790316752155142]}}, {"type": "Feature", "properties": {"norad_id": 66610, "name": "STARLINK-35680", "group": "last-30-days", "lat": -15.523634119183177, "lon": -129.43602630806024, "alt_km": 340.8557067540196, "timestamp": "2025-12-03T10:52:56.223354+00:00", "meta": {"OBJECT_NAME": "STARLINK-35680", "OBJECT_ID": "2025-270Y", "EPOCH": "2025-12-03T04:00:01.998720", "MEAN_MOTION": 15.77846638, "ECCENTRICITY": 0.0001326, "INCLINATION": 42.9991, "RA_OF_ASC_NODE": 249.6532, "ARG_OF_PERICENTER": 271.7155, "MEAN_ANOMALY": 235.0732, "EPHEMERIS_TYPE": 0, "CLASSIFICATION_TYPE": "U", "NORAD_CAT_ID": 66610, "ELEMENT_SET_NO": 999, "REV_AT_EPOCH": 297, "BSTAR": -0.011569, "MEAN_MOTION_DOT": -0.01770823, "MEAN_MOTION_DDOT": 0}, "tle": {"line1": "1 66610U 25270Y   25337.16668980 -.01770823  00000+0 -11569-1 0  9991", "line2": "2 66610  42.9991 249.6532 0001326 271.7155 235.0732 15.77846638  2971"}}, "geometry": {"type": "Point", "coordinates": [-129.43602630806024, -15.523634119183177]}}, {"type": "Feature", "properties": {"norad_id": 66611, "name": "STARLINK-35583", "group": "last-30-days", "lat": -14.265801522092797, "lon": -127.93272736378164, "alt_km": 340.66481297579503, "timestamp": "2025-12-03T10:52:56.223364+00:00", "meta": {"OBJECT_NAME": "STARLINK-35583", "OBJECT_ID": "2025-270Z", "EPOCH": "2025-12-03T04:00:01.998720", "MEAN_MOTION": 15.77839409, "ECCENTRICITY": 0.0001218, "INCLINATION": 42.9991, "RA_OF_ASC_NODE": 249.6482, "ARG_OF_PERICENTER": 280.6464, "MEAN_ANOMALY": 228.0777, "EPHEMERIS_TYPE": 0, "CLASSIFICATION_TYPE": "U", "NORAD_CAT_ID": 66611, "ELEMENT_SET_NO": 999, "REV_AT_EPOCH": 297, "BSTAR": -0.011562, "MEAN_MOTION_DOT": -0.01769401, "MEAN_MOTION_DDOT": 0}, "tle": {"line1": "1 66611U 25270Z   25337.16668980 -.01769401  00000+0 -11562-1 0  9995", "line2": "2 66611  42.9991 249.6482 0001218 280.6464 228.0777 15.77839409  2977"}}, "geometry": {"type": "Point", "coordinates": [-127.93272736378164, -14.265801522092797]}}, {"type": "Feature", "properties": {"norad_id": 66612, "name": "STARLINK-36039", "group": "last-30-days", "lat": -12.940882203749934, "lon": -126.37900558205908, "alt_km": 340.7804104606421, "timestamp": "2025-12-03T10:52:56.223376+00:00", "meta": {"OBJECT_NAME": "STARLINK-36039", "OBJECT_ID": "2025-270AA", "EPOCH": "2025-12-03T04:00:01.998720", "MEAN_MOTION": 15.77787995, "ECCENTRICITY": 0.0001255, "INCLINATION": 42.9991, "RA_OF_ASC_NODE": 249.643, "ARG_OF_PERICENTER": 276.2128, "MEAN_ANOMALY": 234.5792, "EPHEMERIS_TYPE": 0, "CLASSIFICATION_TYPE": "U", "NORAD_CAT_ID": 66612, "ELEMENT_SET_NO": 999, "REV_AT_EPOCH": 286, "BSTAR": -0.01164, "MEAN_MOTION_DOT": -0.01776192, "MEAN_MOTION_DDOT": 0}, "tle": {"line1": "1 66612U 25270AA  25337.16668980 -.01776192  00000+0 -11640-1 0  9998", "line2": "2 66612  42.9991 249.6430 0001255 276.2128 234.5792 15.77787995  2869"}}, "geometry": {"type": "Point", "coordinates": [-126.37900558205908, -12.940882203749934]}}]}